{
    "links": {
        "self": "http://www.neowsapp.com/rest/v1/neo/3735491?api_key=iIulBulltgU6a56xZRHN4H3l9WmuAYTsLGpBGhQ2"
    },
    "id": "3735491",
    "neo_reference_id": "3735491",
    "name": "(2015 WJ2)",
    "designation": "2015 WJ2",
    "nasa_jpl_url": "http://ssd.jpl.nasa.gov/sbdb.cgi?sstr=3735491",
    "absolute_magnitude_h": 26.0,
    "estimated_diameter": {
        "kilometers": {
            "estimated_diameter_min": 0.0167708462,
            "estimated_diameter_max": 0.0375007522
        },
        "meters": {
            "estimated_diameter_min": 16.7708462163,
            "estimated_diameter_max": 37.5007521798
        },
        "miles": {
            "estimated_diameter_min": 0.0104209175,
            "estimated_diameter_max": 0.0233018799
        },
        "feet": {
            "estimated_diameter_min": 55.0224631002,
            "estimated_diameter_max": 123.0339677816
        }
    },
    "is_potentially_hazardous_asteroid": false,
    "close_approach_data": [
        {
            "close_approach_date": "2015-11-17",
            "close_approach_date_full": "2015-Nov-17 11:12",
            "epoch_date_close_approach": 1447758720000,
            "relative_velocity": {
                "kilometers_per_second": "18.7356284845",
                "kilometers_per_hour": "67448.2625441892",
                "miles_per_hour": "41909.7273569713"
            },
            "miss_distance": {
                "astronomical": "0.0056099236",
                "lunar": "2.1822602804",
                "kilometers": "839232.621422732",
                "miles": "521474.9698364216"
            },
            "orbiting_body": "Moon"
        },
        {
            "close_approach_date": "2015-11-17",
            "close_approach_date_full": "2015-Nov-17 13:18",
            "epoch_date_close_approach": 1447766280000,
            "relative_velocity": {
                "kilometers_per_second": "19.6867906145",
                "kilometers_per_hour": "70872.4462123051",
                "miles_per_hour": "44037.3819256404"
            },
            "miss_distance": {
                "astronomical": "0.0046777774",
                "lunar": "1.8196554086",
                "kilometers": "699785.535374138",
                "miles": "434826.5685055844"
            },
            "orbiting_body": "Earth"
        },
        {
            "close_approach_date": "2054-11-25",
            "close_approach_date_full": "2054-Nov-25 23:52",
            "epoch_date_close_approach": 2679263520000,
            "relative_velocity": {
                "kilometers_per_second": "24.5982362626",
                "kilometers_per_hour": "88553.6505453964",
                "miles_per_hour": "55023.7946958325"
            },
            "miss_distance": {
                "astronomical": "0.1663146053",
                "lunar": "64.6963814617",
                "kilometers": "24880310.702770711",
                "miles": "15459908.1852333718"
            },
            "orbiting_body": "Earth"
        }
    ],
    "orbital_data": {
        "orbit_id": "3",
        "orbit_determination_date": "2017-04-06 08:30:26",
        "first_observation_date": "2015-11-21",
        "last_observation_date": "2015-11-22",
        "data_arc_in_days": 1,
        "observations_used": 17,
        "orbit_uncertainty": "9",
        "minimum_orbit_intersection": ".00330791",
        "jupiter_tisserand_invariant": "3.869",
        "epoch_osculation": "2457348.5",
        "eccentricity": ".6484658233526297",
        "semi_major_axis": "1.740149052949477",
        "inclination": "2.991344065456019",
        "ascending_node_longitude": "59.87739668491936",
        "orbital_period": "838.4517994044053",
        "perihelion_distance": ".6117218645722956",
        "perihelion_argument": "266.5077087193336",
        "aphelion_distance": "2.868576241326658",
        "perihelion_time": "2457296.204650364455",
        "mean_anomaly": "22.45367698199168",
        "mean_motion": ".4293627853810156",
        "equinox": "J2000",
        "orbit_class": {
            "orbit_class_type": "APO",
            "orbit_class_description": "Near-Earth asteroid orbits which cross the Earth’s orbit similar to that of 1862 Apollo",
            "orbit_class_range": "a (semi-major axis) > 1.0 AU; q (perihelion) < 1.017 AU"
        }
    },
    "is_sentry_object": false
}